{
    "links": {
        "self": "http://www.neowsapp.com/rest/v1/neo/3267204?api_key=iIulBulltgU6a56xZRHN4H3l9WmuAYTsLGpBGhQ2"
    },
    "id": "3267204",
    "neo_reference_id": "3267204",
    "name": "(2005 CQ7)",
    "designation": "2005 CQ7",
    "nasa_jpl_url": "http://ssd.jpl.nasa.gov/sbdb.cgi?sstr=3267204",
    "absolute_magnitude_h": 24.5,
    "estimated_diameter": {
        "kilometers": {
            "estimated_diameter_min": 0.0334622374,
            "estimated_diameter_max": 0.0748238376
        },
        "meters": {
            "estimated_diameter_min": 33.4622374455,
            "estimated_diameter_max": 74.8238376074
        },
        "miles": {
            "estimated_diameter_min": 0.0207924639,
            "estimated_diameter_max": 0.0464933628
        },
        "feet": {
            "estimated_diameter_min": 109.7842471007,
            "estimated_diameter_max": 245.4850393757
        }
    },
    "is_potentially_hazardous_asteroid": false,
    "close_approach_data": [
        {
            "close_approach_date": "2005-01-28",
            "close_approach_date_full": "2005-Jan-28 09:16",
            "epoch_date_close_approach": 1106903760000,
            "relative_velocity": {
                "kilometers_per_second": "10.0880288555",
                "kilometers_per_hour": "36316.9038796747",
                "miles_per_hour": "22565.9117467901"
            },
            "miss_distance": {
                "astronomical": "0.0300940865",
                "lunar": "11.7065996485",
                "kilometers": "4502011.239995755",
                "miles": "2797420.066441219"
            },
            "orbiting_body": "Earth"
        }
    ],
    "orbital_data": {
        "orbit_id": "9",
        "orbit_determination_date": "2017-04-06 09:11:29",
        "first_observation_date": "2005-02-04",
        "last_observation_date": "2005-02-09",
        "data_arc_in_days": 5,
        "observations_used": 30,
        "orbit_uncertainty": "8",
        "minimum_orbit_intersection": ".0294156",
        "jupiter_tisserand_invariant": "3.827",
        "epoch_osculation": "2453407.5",
        "eccentricity": ".4982214254817577",
        "semi_major_axis": "1.85828051794077",
        "inclination": "7.818541056270448",
        "ascending_node_longitude": "138.1460458206649",
        "orbital_period": "925.2633023474041",
        "perihelion_distance": ".9324453493473409",
        "perihelion_argument": "312.08446253",
        "aphelion_distance": "2.7841156865342",
        "perihelion_time": "2453369.232310520927",
        "mean_anomaly": "14.88913283117948",
        "mean_motion": ".3890784375503445",
        "equinox": "J2000",
        "orbit_class": {
            "orbit_class_type": "APO",
            "orbit_class_description": "Near-Earth asteroid orbits which cross the Earth’s orbit similar to that of 1862 Apollo",
            "orbit_class_range": "a (semi-major axis) > 1.0 AU; q (perihelion) < 1.017 AU"
        }
    },
    "is_sentry_object": false
}